NORAD_CAT_ID,OBJECT_NAME,OBJECT_TYPE,EPOCH,MEAN_MOTION,ECCENTRICITY,INCLINATION,RA_OF_ASC_NODE,ARG_OF_PERICENTER,MEAN_ANOMALY,BSTAR,MEAN_MOTION_DOT,MEAN_MOTION_DDOT,TLE_LINE0,TLE_LINE1,TLE_LINE2,SEMIMAJOR_AXIS,PERIOD,APOGEE,PERIGEE,DECAYED
51116.0,STARLINK-3243,PAYLOAD,2022-10-23 08:54:53,15.08847736,0.000213,53.218,65.6973,45.25100000000001,314.8655,3.378e-05,2.49e-06,0.0,0 STARLINK-3243,1 51116U 22005N   22296.37145240  .00000249  00000-0  33780-4 0  9990,2 51116  53.2180  65.6973 0002130  45.2510 314.8655 15.08847736 42685,6917.857,95.437,541.195,538.248,0.0
51116.0,STARLINK-3243,PAYLOAD,2022-10-23 15:16:25,15.08854633,0.0002034,53.2189,64.5085,48.1386,311.9779,0.00010855,1.44e-05,0.0,0 STARLINK-3243,1 51116U 22005N   22296.63640370  .00001440  00000-0  10855-3 0  9994,2 51116  53.2189  64.5085 0002034  48.1386 311.9779 15.08854633 42726,6917.8359999999975,95.437,541.1080000000002,538.294,0.0
51116.0,STARLINK-3243,PAYLOAD,2022-10-24 07:10:17,15.08844667,0.0002102,53.2189,61.5348,48.1303,311.9868,3.4226e-05,2.57e-06,0.0,0 STARLINK-3243,1 51116U 22005N   22297.29881024  .00000257  00000-0  34226-4 0  9994,2 51116  53.2189  61.5348 0002102  48.1303 311.9868 15.08844667 43939,6917.866,95.437,541.185,538.2769999999998,0.0
51116.0,STARLINK-3243,PAYLOAD,2022-10-24 15:07:14,15.08829936,0.0002070999999999,53.2186,60.0479,37.9015,322.2122,-0.00011587,-2.131e-05,0.0,0 STARLINK-3243,1 51116U 22005N   22297.63002361 -.00002131  00000-0 -11587-3 0  9990,2 51116  53.2186  60.0479 0002071  37.9015 322.2122 15.08829936 42878,6917.911,95.438,541.2090000000002,538.3430000000002,0.0
51116.0,STARLINK-3243,PAYLOAD,2022-10-25 00:39:34,15.08818841,0.0002314,53.2188,58.2648,35.4375,324.6771,-0.00023349,-4e-05,0.0,0 STARLINK-3243,1 51116U 22005N   22298.02747826 -.00004000  00000-0 -23349-3 0  9992,2 51116  53.2188  58.2648 0002314  35.4375 324.6771 15.08818841 44049,6917.945,95.439,541.411,538.2090000000002,0.0
51116.0,STARLINK-3243,PAYLOAD,2022-10-25 08:36:29,15.0882435,0.0001613,53.2188,56.776,35.4308,324.6791,-0.00016321,-2.883e-05,0.0,0 STARLINK-3243,1 51116U 22005N   22298.35867510 -.00002883  00000-0 -16321-3 0  9990,2 51116  53.2188  56.7760 0001613  35.4308 324.6791 15.08824350 42989,6917.928000000001,95.439,540.909,538.677,0.0
51116.0,STARLINK-3243,PAYLOAD,2022-10-25 13:22:38,15.08836379,0.0002298,53.2182,55.8845,32.9116,327.2019,-7.0984e-05,-1.418e-05,0.0,0 STARLINK-3243,1 51116U 22005N   22298.55738745 -.00001418  00000-0 -70984-4 0  9998,2 51116  53.2182  55.8845 0002298  32.9116 327.2019 15.08836379 44120,6917.891,95.438,541.346,538.1669999999998,0.0
51116.0,STARLINK-3243,PAYLOAD,2022-10-26 11:38:01,15.08833344,0.0002411,53.2177,51.721,27.0534,333.0584,0.00021194,3.086e-05,0.0,0 STARLINK-3243,1 51116U 22005N   22299.48474484  .00003086  00000-0  21194-3 0  9997,2 51116  53.2177  51.7210 0002411  27.0534 333.0584 15.08833344 43154,6917.901,95.438,541.434,538.0980000000002,0.0
51116.0,STARLINK-3243,PAYLOAD,2022-10-26 16:24:11,15.08829332,0.0002137,53.2192,50.8304,34.2159,325.897,0.0001735,2.473e-05,0.0,0 STARLINK-3243,1 51116U 22005N   22299.68346899  .00002473  00000-0  17350-3 0  9995,2 51116  53.2192  50.8304 0002137  34.2159 325.8970 15.08829332 44299,6917.913000000001,95.438,541.256,538.3,0.0
51116.0,STARLINK-3243,PAYLOAD,2022-10-27 00:21:07,15.08825015,0.0002126,53.2187,49.3441,34.0923,326.0206,0.00030337,4.541e-05,0.0,0 STARLINK-3243,1 51116U 22005N   22300.01467261  .00004541  00000-0  30337-3 0  9990,2 51116  53.2187  49.3441 0002126  34.0923 326.0206 15.08825015 43235,6917.926,95.439,541.262,538.32,0.0
51116.0,STARLINK-3243,PAYLOAD,2022-10-28 12:54:58,15.08845314,0.0002077,53.2192,42.5042,41.9553,318.1598,0.00015216,2.135e-05,0.0,0 STARLINK-3243,1 51116U 22005N   22301.53818159  .00002135  00000-0  15216-3 0  9990,2 51116  53.2192  42.5042 0002077  41.9553 318.1598 15.08845314 44572,6917.864000000001,95.437,541.1659999999998,538.2919999999998,0.0
51116.0,STARLINK-3243,PAYLOAD,2022-10-28 14:30:21,15.08886541,0.0002163,53.2192,42.2071,29.5408,330.5707,-0.00041762,-6.937e-05,0.0,0 STARLINK-3243,1 51116U 22005N   22301.60441042 -.00006937  00000-0 -41762-3 0  9992,2 51116  53.2192  42.2071 0002163  29.5408 330.5707 15.08886541 44586,6917.738,95.435,541.099,538.107,0.0
51116.0,STARLINK-3243,PAYLOAD,2022-10-29 00:02:41,15.08844783,0.0002374,53.2203,40.4229,36.3917,323.7236,6.595800000000001e-05,7.62e-06,0.0,0 STARLINK-3243,1 51116U 22005N   22302.00186451  .00000762  00000-0  65958-4 0  9999,2 51116  53.2203  40.4229 0002374  36.3917 323.7236 15.08844783 43536,6917.866,95.437,541.373,538.0880000000002,0.0
51116.0,STARLINK-3243,PAYLOAD,2022-10-29 15:56:31,15.08848113,0.0002081,53.2199,37.449,40.7647,319.3501,9.6282e-05,1.245e-05,0.0,0 STARLINK-3243,1 51116U 22005N   22302.66425622  .00001245  00000-0  96282-4 0  9998,2 51116  53.2199  37.4490 0002081  40.7647 319.3501 15.08848113 43638,6917.856,95.437,541.16,538.281,0.0
51116.0,STARLINK-3243,PAYLOAD,2022-10-30 11:01:08,15.08855719,0.0002136,53.2193,33.8812,37.1361,322.9779,0.00021736,3.174e-05,0.0,0 STARLINK-3243,1 51116U 22005N   22303.45913031  .00003174  00000-0  21736-3 0  9996,2 51116  53.2193  33.8812 0002136  37.1361 322.9779 15.08855719 43754,6917.831999999999,95.437,541.175,538.22,0.0
51116.0,STARLINK-3243,PAYLOAD,2022-10-30 12:36:32,15.08852286,0.0002322,53.2192,33.5855,35.7025,324.4122,0.00016615,2.358e-05,0.0,0 STARLINK-3243,1 51116U 22005N   22303.52537199  .00002358  00000-0  16615-3 0  9994,2 51116  53.2192  33.5855 0002322  35.7025 324.4122 15.08852286 43761,6917.843000000003,95.437,541.314,538.102,0.0
51116.0,STARLINK-3243,PAYLOAD,2022-10-31 10:51:56,15.08841169,0.0002301,53.2194,29.4212,37.1191,322.996,3.3668e-06,-2.35e-06,0.0,0 STARLINK-3243,1 51116U 22005N   22304.45273672 -.00000235  00000-0  33668-5 0  9992,2 51116  53.2194  29.4212 0002301  37.1191 322.9960 15.08841169 43908,6917.877,95.437,541.3340000000002,538.15,0.0
51116.0,STARLINK-3243,PAYLOAD,2022-10-31 12:27:19,15.08843058,0.0002248,53.2191,29.1232,33.7611,326.3524,3.4579e-05,2.62e-06,0.0,0 STARLINK-3243,1 51116U 22005N   22304.51897408  .00000262  00000-0  34579-4 0  9998,2 51116  53.2191  29.1232 0002248  33.7611 326.3524 15.08843058 45021,6917.871,95.437,541.2909999999998,538.181,0.0
51116.0,STARLINK-3243,PAYLOAD,2022-11-01 10:42:44,15.08836072,0.0002327,53.2198,24.9617,37.7759,322.3397,-8.4174e-05,-1.628e-05,0.0,0 STARLINK-3243,1 51116U 22005N   22305.44634391 -.00001628  00000-0 -84174-4 0  9996,2 51116  53.2198  24.9617 0002327  37.7759 322.3397 15.08836072 45160,6917.892,95.438,541.367,538.148,0.0
51116.0,STARLINK-3243,PAYLOAD,2022-11-01 12:18:10,15.08675673,0.0003002,53.2197,24.6645,47.6702,312.4544,0.0020774,0.00032781,0.0,0 STARLINK-3243,1 51116U 22005N   22305.51262012  .00032781  00000-0  20774-2 0  9997,2 51116  53.2197  24.6645 0003002  47.6702 312.4544 15.08675673 44066,6918.3830000000025,95.448,542.325,538.1709999999998,0.0
51116.0,STARLINK-3243,PAYLOAD,2022-11-01 15:28:53,15.08840563,0.0002268,53.2195,24.0689,38.1073,322.0079,-7.409800000000001e-05,-1.467e-05,0.0,0 STARLINK-3243,1 51116U 22005N   22305.64506069 -.00001467  00000-0 -74098-4 0  9993,2 51116  53.2195  24.0689 0002268  38.1073 322.0079 15.08840563 44089,6917.879,95.438,541.313,538.175,0.0
51116.0,STARLINK-3243,PAYLOAD,2022-11-02 12:08:54,15.08828419,0.0002246,53.2193,20.2036,34.2606,325.8531,1.4444e-05,-5.8e-07,0.0,0 STARLINK-3243,1 51116U 22005N   22306.50619035 -.00000058  00000-0  14444-4 0  9990,2 51116  53.2193  20.2036 0002246  34.2606 325.8531 15.08828419 45324,6917.916,95.438,541.335,538.227,0.0
51116.0,STARLINK-3243,PAYLOAD,2022-11-03 11:59:41,15.08841767,0.000234,53.2202,15.7454,40.7681,319.3486,0.00017746,2.537e-05,0.0,0 STARLINK-3243,1 51116U 22005N   22307.49978657  .00002537  00000-0  17746-3 0  9997,2 51116  53.2202  15.7454 0002340  40.7681 319.3486 15.08841767 45472,6917.875,95.437,541.359,538.121,0.0
51116.0,STARLINK-3243,PAYLOAD,2022-11-04 13:25:50,15.08850504,0.0002426,53.2195,10.9856,25.4601,334.651,0.00011945,1.614e-05,0.0,0 STARLINK-3243,1 51116U 22005N   22308.55961758  .00001614  00000-0  11945-3 0  9999,2 51116  53.2195  10.9856 0002426  25.4601 334.6510 15.08850504 44525,6917.848000000001,95.437,541.3919999999998,538.035,0.0
51116.0,STARLINK-3243,PAYLOAD,2022-11-04 21:22:47,15.08834512,0.0002391,53.2195,9.4989,30.6809,329.4322,6.5913e-05,7.61e-06,0.0,0 STARLINK-3243,1 51116U 22005N   22308.89082931  .00000761  00000-0  65913-4 0  9990,2 51116  53.2195   9.4989 0002391  30.6809 329.4322 15.08834512 45686,6917.897,95.438,541.4159999999998,538.1080000000002,0.0
51116.0,STARLINK-3243,PAYLOAD,2022-11-05 13:16:40,15.08821461,0.0002276,53.2192,6.5252,32.3967,327.7164,-0.00021958,-3.78e-05,0.0,0 STARLINK-3243,1 51116U 22005N   22309.55324682 -.00003780  00000-0 -21958-3 0  9992,2 51116  53.2192   6.5252 0002276  32.3967 327.7164 15.08821461 44672,6917.937,95.439,541.377,538.2280000000002,0.0
51116.0,STARLINK-3243,PAYLOAD,2022-11-06 09:56:41,15.08828301,0.0002302,53.2192,2.6593,26.193,333.9178,-0.00014974,-2.67e-05,0.0,0 STARLINK-3243,1 51116U 22005N   22310.41436745 -.00002670  00000-0 -14974-3 0  9990,2 51116  53.2192   2.6593 0002302  26.1930 333.9178 15.08828301 45910,6917.916,95.438,541.374,538.189,0.0
51116.0,STARLINK-3243,PAYLOAD,2022-11-07 03:25:55,15.08834436,0.0002345,53.2191,359.3889,26.5798,333.5315,4.5032e-05,4.28e-06,0.0,0 STARLINK-3243,1 51116U 22005N   22311.14300369  .00000428  00000-0  45032-4 0  9990,2 51116  53.2191 359.3889 0002345  26.5798 333.5315 15.08834436 46020,6917.897,95.438,541.385,538.14,0.0
51116.0,STARLINK-3243,PAYLOAD,2022-11-07 11:22:51,15.08833042,0.0002426,53.2192,357.9026,31.0903,329.0233,0.00012226,1.658e-05,0.0,0 STARLINK-3243,1 51116U 22005N   22311.47420836  .00001658  00000-0  12226-3 0  9992,2 51116  53.2192 357.9026 0002426  31.0903 329.0233 15.08833042 44969,6917.901999999999,95.438,541.445,538.0880000000002,0.0
